[{"OBJECT_NAME":"ONEWEB-0035","OBJECT_ID":"2020-008N","EPOCH":"2026-03-20T04:52:55.839648","MEAN_MOTION":13.10375382,"ECCENTRICITY":0.00020297,"INCLINATION":87.8791,"RA_OF_ASC_NODE":53.9912,"ARG_OF_PERICENTER":83.7071,"MEAN_ANOMALY":276.4287,"EPHEMERIS_TYPE":0,"CLASSIFICATION_TYPE":"U","NORAD_CAT_ID":45143,"ELEMENT_SET_NO":999,"REV_AT_EPOCH":29628,"BSTAR":-0.00019752637,"MEAN_MOTION_DOT":-5.6e-7,"MEAN_MOTION_DDOT":0},{"OBJECT_NAME":"ONEWEB-0036","OBJECT_ID":"2020-008P","EPOCH":"2026-03-20T04:59:20.607360","MEAN_MOTION":13.09820635,"ECCENTRICITY":0.0001648,"INCLINATION":87.8808,"RA_OF_ASC_NODE":53.9652,"ARG_OF_PERICENTER":82.4954,"MEAN_ANOMALY":277.636,"EPHEMERIS_TYPE":0,"CLASSIFICATION_TYPE":"U","NORAD_CAT_ID":45144,"ELEMENT_SET_NO":999,"REV_AT_EPOCH":29671,"BSTAR":0.00045882713,"MEAN_MOTION_DOT":1.72e-6,"MEAN_MOTION_DDOT":0},{"OBJECT_NAME":"ONEWEB-0038","OBJECT_ID":"2020-008Q","EPOCH":"2026-03-20T06:47:42.792288","MEAN_MOTION":13.11414145,"ECCENTRICITY":0.00028482,"INCLINATION":87.8893,"RA_OF_ASC_NODE":38.7389,"ARG_OF_PERICENTER":116.9702,"MEAN_ANOMALY":243.1718,"EPHEMERIS_TYPE":0,"CLASSIFICATION_TYPE":"U","NORAD_CAT_ID":45145,"ELEMENT_SET_NO":999,"REV_AT_EPOCH":29867,"BSTAR":-0.00060152873,"MEAN_MOTION_DOT":-2.0e-6,"MEAN_MOTION_DDOT":0},{"OBJECT_NAME":"ONEWEB-0039","OBJECT_ID":"2020-008R","EPOCH":"2026-03-19T22:43:36.499008","MEAN_MOTION":13.1037096,"ECCENTRICITY":0.0001394,"INCLINATION":87.88,"RA_OF_ASC_NODE":54.0284,"ARG_OF_PERICENTER":94.1944,"MEAN_ANOMALY":265.9342,"EPHEMERIS_TYPE":0,"CLASSIFICATION_TYPE":"U","NORAD_CAT_ID":45146,"ELEMENT_SET_NO":999,"REV_AT_EPOCH":29647,"BSTAR":-0.0014533,"MEAN_MOTION_DOT":-4.95e-6,"MEAN_MOTION_DDOT":0},{"OBJECT_NAME":"ONEWEB-0040","OBJECT_ID":"2020-008S","EPOCH":"2026-03-20T00:24:00.609408","MEAN_MOTION":13.10370515,"ECCENTRICITY":0.00018782,"INCLINATION":87.8788,"RA_OF_ASC_NODE":54.0298,"ARG_OF_PERICENTER":87.6161,"MEAN_ANOMALY":272.5182,"EPHEMERIS_TYPE":0,"CLASSIFICATION_TYPE":"U","NORAD_CAT_ID":45147,"ELEMENT_SET_NO":999,"REV_AT_EPOCH":29618,"BSTAR":-0.00061692386,"MEAN_MOTION_DOT":-2.03e-6,"MEAN_MOTION_DDOT":0},{"OBJECT_NAME":"ONEWEB-0043","OBJECT_ID":"2020-008U","EPOCH":"2026-03-19T22:36:26.481888","MEAN_MOTION":13.10369743,"ECCENTRICITY":0.0001356,"INCLINATION":87.8793,"RA_OF_ASC_NODE":54.028,"ARG_OF_PERICENTER":92.3429,"MEAN_ANOMALY":267.7854,"EPHEMERIS_TYPE":0,"CLASSIFICATION_TYPE":"U","NORAD_CAT_ID":45149,"ELEMENT_SET_NO":999,"REV_AT_EPOCH":29649,"BSTAR":-0.0011621,"MEAN_MOTION_DOT":-3.93e-6,"MEAN_MOTION_DDOT":0},{"OBJECT_NAME":"ONEWEB-0044","OBJECT_ID":"2020-008V","EPOCH":"2026-03-20T04:46:55.632864","MEAN_MOTION":13.10373836,"ECCENTRICITY":0.0001747,"INCLINATION":87.8802,"RA_OF_ASC_NODE":53.9729,"ARG_OF_PERICENTER":88.3883,"MEAN_ANOMALY":271.7445,"EPHEMERIS_TYPE":0,"CLASSIFICATION_TYPE":"U","NORAD_CAT_ID":45150,"ELEMENT_SET_NO":999,"REV_AT_EPOCH":29682,"BSTAR":-0.00081921311,"MEAN_MOTION_DOT":-2.73e-6,"MEAN_MOTION_DDOT":0},{"OBJECT_NAME":"ONEWEB-0045","OBJECT_ID":"2020-008W","EPOCH":"2026-03-20T06:40:12.657792","MEAN_MOTION":13.11413771,"ECCENTRICITY":0.00018223,"INCLINATION":87.889,"RA_OF_ASC_NODE":38.7263,"ARG_OF_PERICENTER":82.5357,"MEAN_ANOMALY":277.5978,"EPHEMERIS_TYPE":0,"CLASSIFICATION_TYPE":"U","NORAD_CAT_ID":45151,"ELEMENT_SET_NO":999,"REV_AT_EPOCH":29875,"BSTAR":-0.00018294775,"MEAN_MOTION_DOT":-5.2e-7,"MEAN_MOTION_DDOT":0},{"OBJECT_NAME":"ONEWEB-0047","OBJECT_ID":"2020-008X","EPOCH":"2026-03-20T04:37:22.599552","MEAN_MOTION":13.1037513,"ECCENTRICITY":0.00020489,"INCLINATION":87.8797,"RA_OF_ASC_NODE":53.9765,"ARG_OF_PERICENTER":85.8101,"MEAN_ANOMALY":274.326,"EPHEMERIS_TYPE":0,"CLASSIFICATION_TYPE":"U","NORAD_CAT_ID":45152,"ELEMENT_SET_NO":999,"REV_AT_EPOCH":29654,"BSTAR":-0.0014804212,"MEAN_MOTION_DOT":-5.04e-6,"MEAN_MOTION_DDOT":0},{"OBJECT_NAME":"ONEWEB-0048","OBJECT_ID":"2020-008Y","EPOCH":"2026-03-20T04:30:12.181536","MEAN_MOTION":13.10373742,"ECCENTRICITY":0.00019593,"INCLINATION":87.8787,"RA_OF_ASC_NODE":54.0039,"ARG_OF_PERICENTER":85.1316,"MEAN_ANOMALY":275.0035,"EPHEMERIS_TYPE":0,"CLASSIFICATION_TYPE":"U","NORAD_CAT_ID":45153,"ELEMENT_SET_NO":999,"REV_AT_EPOCH":29615,"BSTAR":-0.0020428432,"MEAN_MOTION_DOT":-7.0e-6,"MEAN_MOTION_DDOT":0},{"OBJECT_NAME":"ONEWEB-0049","OBJECT_ID":"2020-008Z","EPOCH":"2026-03-20T04:34:47.242848","MEAN_MOTION":13.10374201,"ECCENTRICITY":0.00016295,"INCLINATION":87.8792,"RA_OF_ASC_NODE":53.9914,"ARG_OF_PERICENTER":71.5668,"MEAN_ANOMALY":288.5636,"EPHEMERIS_TYPE":0,"CLASSIFICATION_TYPE":"U","NORAD_CAT_ID":45154,"ELEMENT_SET_NO":999,"REV_AT_EPOCH":29637,"BSTAR":-0.0015856003,"MEAN_MOTION_DOT":-5.41e-6,"MEAN_MOTION_DDOT":0},{"OBJECT_NAME":"ONEWEB-0051","OBJECT_ID":"2020-008AA","EPOCH":"2026-03-20T06:37:45.735456","MEAN_MOTION":13.1141483,"ECCENTRICITY":0.00018779,"INCLINATION":87.8887,"RA_OF_ASC_NODE":38.7395,"ARG_OF_PERICENTER":81.0571,"MEAN_ANOMALY":279.077,"EPHEMERIS_TYPE":0,"CLASSIFICATION_TYPE":"U","NORAD_CAT_ID":45155,"ELEMENT_SET_NO":999,"REV_AT_EPOCH":29943,"BSTAR":8.8872554e-5,"MEAN_MOTION_DOT":4.4e-7,"MEAN_MOTION_DDOT":0},{"OBJECT_NAME":"ONEWEB-0052","OBJECT_ID":"2020-008AB","EPOCH":"2026-03-20T04:41:51.815040","MEAN_MOTION":13.09881295,"ECCENTRICITY":0.00017346,"INCLINATION":87.8804,"RA_OF_ASC_NODE":53.9659,"ARG_OF_PERICENTER":71.1715,"MEAN_ANOMALY":288.96,"EPHEMERIS_TYPE":0,"CLASSIFICATION_TYPE":"U","NORAD_CAT_ID":45156,"ELEMENT_SET_NO":999,"REV_AT_EPOCH":29628,"BSTAR":-0.0031892183,"MEAN_MOTION_DOT":-1.093e-5,"MEAN_MOTION_DDOT":0},{"OBJECT_NAME":"ONEWEB-0053","OBJECT_ID":"2020-008AC","EPOCH":"2026-03-19T22:31:39.963936","MEAN_MOTION":13.10370607,"ECCENTRICITY":0.0001357,"INCLINATION":87.8786,"RA_OF_ASC_NODE":54.051,"ARG_OF_PERICENTER":84.3162,"MEAN_ANOMALY":275.812,"EPHEMERIS_TYPE":0,"CLASSIFICATION_TYPE":"U","NORAD_CAT_ID":45157,"ELEMENT_SET_NO":999,"REV_AT_EPOCH":29622,"BSTAR":-0.00062554,"MEAN_MOTION_DOT":-2.06e-6,"MEAN_MOTION_DDOT":0},{"OBJECT_NAME":"ONEWEB-0054","OBJECT_ID":"2020-008AD","EPOCH":"2026-03-20T04:51:43.724160","MEAN_MOTION":13.10376449,"ECCENTRICITY":0.00018623,"INCLINATION":87.8803,"RA_OF_ASC_NODE":53.9734,"ARG_OF_PERICENTER":81.1263,"MEAN_ANOMALY":279.0075,"EPHEMERIS_TYPE":0,"CLASSIFICATION_TYPE":"U","NORAD_CAT_ID":45158,"ELEMENT_SET_NO":999,"REV_AT_EPOCH":29637,"BSTAR":-0.00023365443,"MEAN_MOTION_DOT":-6.9e-7,"MEAN_MOTION_DDOT":0},{"OBJECT_NAME":"ONEWEB-0056","OBJECT_ID":"2020-008AE","EPOCH":"2026-03-20T04:24:13.495392","MEAN_MOTION":13.10373438,"ECCENTRICITY":0.00018553,"INCLINATION":87.8796,"RA_OF_ASC_NODE":53.9774,"ARG_OF_PERICENTER":77.5899,"MEAN_ANOMALY":282.5436,"EPHEMERIS_TYPE":0,"CLASSIFICATION_TYPE":"U","NORAD_CAT_ID":45159,"ELEMENT_SET_NO":999,"REV_AT_EPOCH":29652,"BSTAR":-0.0018013022,"MEAN_MOTION_DOT":-6.16e-6,"MEAN_MOTION_DDOT":0},{"OBJECT_NAME":"ONEWEB-0057","OBJECT_ID":"2020-008AF","EPOCH":"2026-03-20T04:35:12.317856","MEAN_MOTION":13.10368914,"ECCENTRICITY":0.00014417,"INCLINATION":87.8797,"RA_OF_ASC_NODE":53.9853,"ARG_OF_PERICENTER":85.7705,"MEAN_ANOMALY":274.3587,"EPHEMERIS_TYPE":0,"CLASSIFICATION_TYPE":"U","NORAD_CAT_ID":45160,"ELEMENT_SET_NO":999,"REV_AT_EPOCH":29669,"BSTAR":0.0010024703,"MEAN_MOTION_DOT":3.63e-6,"MEAN_MOTION_DDOT":0}]
