ONEWEB-0035             
1 45143U 20008N   26079.20342407 -.00000056  00000+0 -19753-3 0  9993
2 45143  87.8791  53.9912 0002029  83.7071 276.4287 13.10375382296283
ONEWEB-0036             
1 45144U 20008P   26079.20787740  .00000172  00000+0  45883-3 0  9997
2 45144  87.8808  53.9652 0001648  82.4954 277.6360 13.09820635296713
ONEWEB-0038             
1 45145U 20008Q   26079.28313417 -.00000200  00000+0 -60153-3 0  9993
2 45145  87.8893  38.7389 0002848 116.9702 243.1718 13.11414145298673
ONEWEB-0039             
1 45146U 20008R   26078.94695022 -.00000495  00000+0 -14533-2 0  9997
2 45146  87.8800  54.0284 0001394  94.1944 265.9342 13.10370960296473
ONEWEB-0040             
1 45147U 20008S   26079.01667372 -.00000203  00000+0 -61692-3 0  9990
2 45147  87.8788  54.0298 0001878  87.6161 272.5182 13.10370515296189
ONEWEB-0043             
1 45149U 20008U   26078.94197317 -.00000393  00000+0 -11621-2 0  9996
2 45149  87.8793  54.0280 0001356  92.3429 267.7854 13.10369743296496
ONEWEB-0044             
1 45150U 20008V   26079.19925501 -.00000273  00000+0 -81921-3 0  9998
2 45150  87.8802  53.9729 0001747  88.3883 271.7445 13.10373836296824
ONEWEB-0045             
1 45151U 20008W   26079.27792428 -.00000052  00000+0 -18295-3 0  9997
2 45151  87.8890  38.7263 0001822  82.5357 277.5978 13.11413771298755
ONEWEB-0047             
1 45152U 20008X   26079.19262268 -.00000504  00000+0 -14804-2 0  9996
2 45152  87.8797  53.9765 0002048  85.8101 274.3260 13.10375130296541
ONEWEB-0048             
1 45153U 20008Y   26079.18764099 -.00000700  00000+0 -20428-2 0  9992
2 45153  87.8787  54.0039 0001959  85.1316 275.0035 13.10373742296150
ONEWEB-0049             
1 45154U 20008Z   26079.19082457 -.00000541  00000+0 -15856-2 0  9997
2 45154  87.8792  53.9914 0001629  71.5668 288.5636 13.10374201296371
ONEWEB-0051             
1 45155U 20008AA  26079.27622379  .00000044  00000+0  88873-4 0  9997
2 45155  87.8887  38.7395 0001877  81.0571 279.0770 13.11414830299433
ONEWEB-0052             
1 45156U 20008AB  26079.19573860 -.00001093  00000+0 -31892-2 0  9993
2 45156  87.8804  53.9659 0001734  71.1715 288.9600 13.09881295296288
ONEWEB-0053             
1 45157U 20008AC  26078.93865699 -.00000206  00000+0 -62554-3 0  9994
2 45157  87.8786  54.0510 0001357  84.3162 275.8120 13.10370607296227
ONEWEB-0054             
1 45158U 20008AD  26079.20258940 -.00000069  00000+0 -23365-3 0  9995
2 45158  87.8803  53.9734 0001862  81.1263 279.0075 13.10376449296373
ONEWEB-0056             
1 45159U 20008AE  26079.18348953 -.00000616  00000+0 -18013-2 0  9998
2 45159  87.8796  53.9774 0001855  77.5899 282.5436 13.10373438296527
ONEWEB-0057             
1 45160U 20008AF  26079.19111479  .00000363  00000+0  10025-2 0  9994
2 45160  87.8797  53.9853 0001441  85.7705 274.3587 13.10368914296693
